[{"OBJECT_NAME":"STARLINK-4493","OBJECT_ID":"2022-101G","EPOCH":"2026-03-09T08:01:20.631648","MEAN_MOTION":15.08839706,"ECCENTRICITY":0.00013603,"INCLINATION":53.2173,"RA_OF_ASC_NODE":75.7032,"ARG_OF_PERICENTER":91.0301,"MEAN_ANOMALY":269.0847,"EPHEMERIS_TYPE":0,"CLASSIFICATION_TYPE":"U","NORAD_CAT_ID":53533,"ELEMENT_SET_NO":999,"REV_AT_EPOCH":19611,"BSTAR":3.2983862e-5,"MEAN_MOTION_DOT":2.37e-6,"MEAN_MOTION_DDOT":0},{"OBJECT_NAME":"OBJECT K","OBJECT_ID":"2017-042K","EPOCH":"2026-03-09T21:28:20.621568","MEAN_MOTION":15.07994228,"ECCENTRICITY":0.00097557,"INCLINATION":97.4104,"RA_OF_ASC_NODE":233.8721,"ARG_OF_PERICENTER":49.2775,"MEAN_ANOMALY":310.9299,"EPHEMERIS_TYPE":0,"CLASSIFICATION_TYPE":"U","NORAD_CAT_ID":42834,"ELEMENT_SET_NO":999,"REV_AT_EPOCH":47201,"BSTAR":0.00042776846,"MEAN_MOTION_DOT":6.528e-5,"MEAN_MOTION_DDOT":0}]
